KUIPER-00016            
1 63732U 25088J   25224.75002315 -.00027785  00000+0 -27560-2 0  9994
2 63732  51.8936 315.8719 0012722 102.1360 326.4273 14.91112282  5706
KUIPER-00018            
1 63733U 25088K   25224.75002315 -.00025686  00000+0 -13651-2 0  9999
2 63733  51.8824 309.1814 0010898 100.3224 130.6486 15.14470040  4194
KUIPER-00019            
1 63734U 25088L   25224.75002315  .00007955  00000+0  40364-3 0  9999
2 63734  51.8736 308.1259 0007228 118.8960 265.3050 15.17770848  5874
KUIPER-00020            
1 63735U 25088M   25224.49026047  .00010090  00000+0  57343-3 0  9998
2 63735  51.8842 311.5099 0006865 112.4783 247.6921 15.13436577 16632
KUIPER-00021            
1 63736U 25088N   25224.60802590  .00012385  00000+0  69940-3 0  9992
2 63736  51.8740 311.6339 0007314 100.5980 259.5820 15.13456462 16472
KUIPER-00023            
1 63737U 25088P   25224.75002315 -.00645942  00000+0 -41976-1 0  9996
2 63737  51.8818 311.8388 0010260 114.6608 249.9662 15.09845134  5874
KUIPER-00024            
1 63738U 25088Q   25224.75002315 -.00705761  00000+0 -23956-1 0  9991
2 63738  51.8741 306.1845 0002706  98.0763 123.7619 15.32515352  4702
KUIPER-00025            
1 63739U 25088R   25224.75002315 -.01392348  00000+0 -83360-1 0  9991
2 63739  51.8842 309.3047 0008810 101.7400 352.8500 15.13538983  5783
